start=new Date('2022-05-18T00:00:00.000Z').valueOf();
sats=[{"GP_ID":"203781796","CLASSIFICATION_TYPE":"U","OBJECT_NAME":"STARLINK-2396","FILE":"3450137","CENTER_NAME":"EARTH","APOAPSIS":"548.467","MEAN_ANOMALY":"302.1080","PERIAPSIS":"545.985","MEAN_MOTION":"15.06395943","RA_OF_ASC_NODE":"17.0231","SEMIMAJOR_AXIS":"6925.361","REV_AT_EPOCH":"6680","TLE_LINE2":"2 47815  53.0551  17.0231 0001792  58.0083 302.1080 15.06395943 66802","OBJECT_TYPE":"PAYLOAD","SITE":"AFETR","ARG_OF_PERICENTER":"58.0083","EPHEMERIS_TYPE":"0","REF_FRAME":"TEME","TLE_LINE1":"1 47815U 21018AE  22137.36164370 -.00000801  00000-0 -34867-4 0  9995","EPOCH":"2022-05-17T08:40:46.015680","DECAY_DATE":null,"PERIOD":"95.592","RCS_SIZE":"LARGE","NORAD_CAT_ID":"47815","LAUNCH_DATE":"2021-03-11","COUNTRY_CODE":"US","ECCENTRICITY":"0.00017920","MEAN_ELEMENT_THEORY":"SGP4","OBJECT_ID":"2021-018AE","MEAN_MOTION_DOT":"-0.00000801","BSTAR":"-0.00003486700000","MEAN_MOTION_DDOT":"0.0000000000000","ELEMENT_SET_NO":"999","INCLINATION":"53.0551","TIME_SYSTEM":"UTC"},{"CENTER_NAME":"EARTH","APOAPSIS":"548.429","GP_ID":"203782534","OBJECT_NAME":"STARLINK-2399","CLASSIFICATION_TYPE":"U","FILE":"3450137","SEMIMAJOR_AXIS":"6925.364","RA_OF_ASC_NODE":"21.9855","MEAN_ANOMALY":"301.5660","PERIAPSIS":"546.030","MEAN_MOTION":"15.06394811","ARG_OF_PERICENTER":"58.5498","SITE":"AFETR","EPHEMERIS_TYPE":"0","REF_FRAME":"TEME","REV_AT_EPOCH":"6673","TLE_LINE2":"2 47816  53.0555  21.9855 0001732  58.5498 301.5660 15.06394811 66734","OBJECT_TYPE":"PAYLOAD","EPOCH":"2022-05-17T08:53:23.214912","DECAY_DATE":null,"TLE_LINE1":"1 47816U 21018AF  22137.37040758 -.00001083  00000-0 -53814-4 0  9996","RCS_SIZE":"LARGE","PERIOD":"95.592","NORAD_CAT_ID":"47816","LAUNCH_DATE":"2021-03-11","COUNTRY_CODE":"US","ECCENTRICITY":"0.00017320","MEAN_MOTION_DOT":"-0.00001083","BSTAR":"-0.00005381400000","MEAN_MOTION_DDOT":"0.0000000000000","ELEMENT_SET_NO":"999","OBJECT_ID":"2021-018AF","MEAN_ELEMENT_THEORY":"SGP4","INCLINATION":"53.0555","TIME_SYSTEM":"UTC"},{"GP_ID":"203782796","OBJECT_NAME":"STARLINK-2400","CLASSIFICATION_TYPE":"U","FILE":"3450137","CENTER_NAME":"EARTH","APOAPSIS":"548.175","MEAN_ANOMALY":"287.6620","PERIAPSIS":"546.261","MEAN_MOTION":"15.06398491","SEMIMAJOR_AXIS":"6925.353","RA_OF_ASC_NODE":"23.4032","REV_AT_EPOCH":"6668","TLE_LINE2":"2 47817  53.0570  23.4032 0001382  72.4520 287.6620 15.06398491 66680","OBJECT_TYPE":"PAYLOAD","ARG_OF_PERICENTER":"72.4520","SITE":"AFETR","EPHEMERIS_TYPE":"0","REF_FRAME":"TEME","TLE_LINE1":"1 47817U 21018AG  22137.05709300 -.00000138  00000-0  96216-5 0  9990","EPOCH":"2022-05-17T01:22:12.835200","DECAY_DATE":null,"PERIOD":"95.592","RCS_SIZE":"LARGE","NORAD_CAT_ID":"47817","LAUNCH_DATE":"2021-03-11","COUNTRY_CODE":"US","ECCENTRICITY":"0.00013820","MEAN_ELEMENT_THEORY":"SGP4","OBJECT_ID":"2021-018AG","MEAN_MOTION_DOT":"-0.00000138","MEAN_MOTION_DDOT":"0.0000000000000","BSTAR":"0.00000962160000","ELEMENT_SET_NO":"999","INCLINATION":"53.0570","TIME_SYSTEM":"UTC"},{"OBJECT_NAME":"STARLINK-2401","GP_ID":"203791107","CLASSIFICATION_TYPE":"U","FILE":"3450366","APOAPSIS":"548.125","CENTER_NAME":"EARTH","PERIAPSIS":"546.307","MEAN_ANOMALY":"297.4041","MEAN_MOTION":"15.06399263","RA_OF_ASC_NODE":"26.7818","SEMIMAJOR_AXIS":"6925.351","OBJECT_TYPE":"PAYLOAD","REV_AT_EPOCH":"6634","TLE_LINE2":"2 47818  53.0538  26.7818 0001313  62.7081 297.4041 15.06399263 66348","EPHEMERIS_TYPE":"0","REF_FRAME":"TEME","SITE":"AFETR","ARG_OF_PERICENTER":"62.7081","TLE_LINE1":"1 47818U 21018AH  22137.41601270  .00003846  00000-0  27697-3 0  9991","EPOCH":"2022-05-17T09:59:03.497280","DECAY_DATE":null,"COUNTRY_CODE":"US","ECCENTRICITY":"0.00013130","NORAD_CAT_ID":"47818","RCS_SIZE":"LARGE","PERIOD":"95.592","LAUNCH_DATE":"2021-03-11","MEAN_ELEMENT_THEORY":"SGP4","OBJECT_ID":"2021-018AH","MEAN_MOTION_DDOT":"0.0000000000000","BSTAR":"0.00027697000000","ELEMENT_SET_NO":"999","MEAN_MOTION_DOT":"0.00003846","TIME_SYSTEM":"UTC","INCLINATION":"53.0538"},{"GP_ID":"203782286","OBJECT_NAME":"STARLINK-2402","CLASSIFICATION_TYPE":"U","FILE":"3450137","CENTER_NAME":"EARTH","APOAPSIS":"548.461","MEAN_ANOMALY":"307.2786","PERIAPSIS":"545.967","MEAN_MOTION":"15.06399816","SEMIMAJOR_AXIS":"6925.349","RA_OF_ASC_NODE":"23.0772","REV_AT_EPOCH":"6676","TLE_LINE2":"2 47819  53.0556  23.0772 0001801  52.8367 307.2786 15.06399816 66763","OBJECT_TYPE":"PAYLOAD","SITE":"AFETR","ARG_OF_PERICENTER":"52.8367","EPHEMERIS_TYPE":"0","REF_FRAME":"TEME","TLE_LINE1":"1 47819U 21018AJ  22137.12713188 -.00000714  00000-0 -29009-4 0  9995","EPOCH":"2022-05-17T03:03:04.194432","DECAY_DATE":null,"RCS_SIZE":"LARGE","PERIOD":"95.592","NORAD_CAT_ID":"47819","LAUNCH_DATE":"2021-03-11","COUNTRY_CODE":"US","ECCENTRICITY":"0.00018010","MEAN_ELEMENT_THEORY":"SGP4","OBJECT_ID":"2021-018AJ","MEAN_MOTION_DOT":"-0.00000714","MEAN_MOTION_DDOT":"0.0000000000000","BSTAR":"-0.00002900900000","ELEMENT_SET_NO":"999","TIME_SYSTEM":"UTC","INCLINATION":"53.0556"},{"ECCENTRICITY":"0.00018530","COUNTRY_CODE":"US","LAUNCH_DATE":"2021-03-11","PERIOD":"95.592","RCS_SIZE":"LARGE","NORAD_CAT_ID":"47820","ELEMENT_SET_NO":"999","MEAN_MOTION_DDOT":"0.0000000000000","BSTAR":"0.00008835900000","MEAN_MOTION_DOT":"0.00001035","OBJECT_ID":"2021-018AK","MEAN_ELEMENT_THEORY":"SGP4","TIME_SYSTEM":"UTC","INCLINATION":"53.0572","CENTER_NAME":"EARTH","APOAPSIS":"548.498","FILE":"3450367","GP_ID":"203790910","OBJECT_NAME":"STARLINK-2403","CLASSIFICATION_TYPE":"U","SEMIMAJOR_AXIS":"6925.350","RA_OF_ASC_NODE":"31.6830","MEAN_MOTION":"15.06399664","MEAN_ANOMALY":"300.9441","PERIAPSIS":"545.931","REF_FRAME":"TEME","EPHEMERIS_TYPE":"0","SITE":"AFETR","ARG_OF_PERICENTER":"59.1731","OBJECT_TYPE":"PAYLOAD","TLE_LINE2":"2 47820  53.0572  31.6830 0001853  59.1731 300.9441 15.06399664 66270","REV_AT_EPOCH":"6627","DECAY_DATE":null,"EPOCH":"2022-05-17T10:32:54.084768","TLE_LINE1":"1 47820U 21018AK  22137.43951487  .00001035  00000-0  88359-4 0  9995"},{"MEAN_ELEMENT_THEORY":"SGP4","OBJECT_ID":"2021-018AL","MEAN_MOTION_DOT":"0.00004015","ELEMENT_SET_NO":"999","MEAN_MOTION_DDOT":"0.0000000000000","BSTAR":"0.00028823000000","LAUNCH_DATE":"2021-03-11","RCS_SIZE":"LARGE","PERIOD":"95.592","NORAD_CAT_ID":"47821","ECCENTRICITY":"0.00012630","COUNTRY_CODE":"US","INCLINATION":"53.0553","TIME_SYSTEM":"UTC","MEAN_MOTION":"15.06405592","PERIAPSIS":"546.322","MEAN_ANOMALY":"280.1184","SEMIMAJOR_AXIS":"6925.331","RA_OF_ASC_NODE":"21.7769","FILE":"3450137","GP_ID":"203783285","CLASSIFICATION_TYPE":"U","OBJECT_NAME":"STARLINK-2406","APOAPSIS":"548.071","CENTER_NAME":"EARTH","TLE_LINE1":"1 47821U 21018AL  22137.41737017  .00004015  00000-0  28823-3 0  9995","DECAY_DATE":null,"EPOCH":"2022-05-17T10:01:00.782688","TLE_LINE2":"2 47821  53.0553  21.7769 0001263  79.9947 280.1184 15.06405592 66748","REV_AT_EPOCH":"6674","OBJECT_TYPE":"PAYLOAD","ARG_OF_PERICENTER":"79.9947","SITE":"AFETR","REF_FRAME":"TEME","EPHEMERIS_TYPE":"0"},{"INCLINATION":"53.0552","TIME_SYSTEM":"UTC","ECCENTRICITY":"0.00017280","COUNTRY_CODE":"US","LAUNCH_DATE":"2021-03-11","PERIOD":"95.592","RCS_SIZE":"LARGE","NORAD_CAT_ID":"47822","ELEMENT_SET_NO":"999","MEAN_MOTION_DDOT":"0.0000000000000","BSTAR":"0.00023406000000","MEAN_MOTION_DOT":"0.00003207","OBJECT_ID":"2021-018AM","MEAN_ELEMENT_THEORY":"SGP4","REF_FRAME":"TEME","EPHEMERIS_TYPE":"0","ARG_OF_PERICENTER":"53.8381","SITE":"AFETR","OBJECT_TYPE":"PAYLOAD","TLE_LINE2":"2 47822  53.0552  30.5421 0001728  53.8381 306.2768 15.06405435 66317","REV_AT_EPOCH":"6631","DECAY_DATE":null,"EPOCH":"2022-05-17T16:39:07.871904","TLE_LINE1":"1 47822U 21018AM  22137.69384111  .00003207  00000-0  23406-3 0  9993","CENTER_NAME":"EARTH","APOAPSIS":"548.394","FILE":"3450240","GP_ID":"203787749","OBJECT_NAME":"STARLINK-2407","CLASSIFICATION_TYPE":"U","RA_OF_ASC_NODE":"30.5421","SEMIMAJOR_AXIS":"6925.332","MEAN_MOTION":"15.06405435","PERIAPSIS":"546.000","MEAN_ANOMALY":"306.2768"},{"DECAY_DATE":null,"EPOCH":"2022-05-17T09:04:00.635232","TLE_LINE1":"1 47823U 21018AN  22137.37778513 -.00001368  00000-0 -72988-4 0  9990","REF_FRAME":"TEME","EPHEMERIS_TYPE":"0","ARG_OF_PERICENTER":"54.9888","SITE":"AFETR","OBJECT_TYPE":"PAYLOAD","TLE_LINE2":"2 47823  53.0562  21.9594 0001573  54.9888 305.1248 15.06379805 66745","REV_AT_EPOCH":"6674","SEMIMAJOR_AXIS":"6925.410","RA_OF_ASC_NODE":"21.9594","MEAN_MOTION":"15.06379805","MEAN_ANOMALY":"305.1248","PERIAPSIS":"546.186","APOAPSIS":"548.365","CENTER_NAME":"EARTH","FILE":"3450137","OBJECT_NAME":"STARLINK-2408","GP_ID":"203781797","CLASSIFICATION_TYPE":"U","INCLINATION":"53.0562","TIME_SYSTEM":"UTC","ELEMENT_SET_NO":"999","MEAN_MOTION_DDOT":"0.0000000000000","BSTAR":"-0.00007298800000","MEAN_MOTION_DOT":"-0.00001368","MEAN_ELEMENT_THEORY":"SGP4","OBJECT_ID":"2021-018AN","ECCENTRICITY":"0.00015730","COUNTRY_CODE":"US","LAUNCH_DATE":"2021-03-11","RCS_SIZE":"LARGE","NORAD_CAT_ID":"47823","PERIOD":"95.593"},{"MEAN_ANOMALY":"297.4497","PERIAPSIS":"546.063","MEAN_MOTION":"15.06407248","SEMIMAJOR_AXIS":"6925.326","RA_OF_ASC_NODE":"22.0050","OBJECT_NAME":"STARLINK-2409","GP_ID":"203782535","CLASSIFICATION_TYPE":"U","FILE":"3450137","CENTER_NAME":"EARTH","APOAPSIS":"548.319","TLE_LINE1":"1 47824U 21018AP  22137.36671648  .00002041  00000-0  15584-3 0  9996","EPOCH":"2022-05-17T08:48:04.303872","DECAY_DATE":null,"REV_AT_EPOCH":"6673","TLE_LINE2":"2 47824  53.0557  22.0050 0001629  62.6658 297.4497 15.06407248 66733","OBJECT_TYPE":"PAYLOAD","ARG_OF_PERICENTER":"62.6658","SITE":"AFETR","EPHEMERIS_TYPE":"0","REF_FRAME":"TEME","OBJECT_ID":"2021-018AP","MEAN_ELEMENT_THEORY":"SGP4","MEAN_MOTION_DOT":"0.00002041","BSTAR":"0.00015584000000","MEAN_MOTION_DDOT":"0.0000000000000","ELEMENT_SET_NO":"999","RCS_SIZE":"LARGE","NORAD_CAT_ID":"47824","PERIOD":"95.592","LAUNCH_DATE":"2021-03-11","COUNTRY_CODE":"US","ECCENTRICITY":"0.00016290","TIME_SYSTEM":"UTC","INCLINATION":"53.0557"}];
